OBJECT_NAME,OBJECT_ID,EPOCH,MEAN_MOTION,ECCENTRICITY,INCLINATION,RA_OF_ASC_NODE,ARG_OF_PERICENTER,MEAN_ANOMALY,EPHEMERIS_TYPE,CLASSIFICATION_TYPE,NORAD_CAT_ID,ELEMENT_SET_NO,REV_AT_EPOCH,BSTAR,MEAN_MOTION_DOT,MEAN_MOTION_DDOT
ONEWEB-0606,2022-166AE,2026-06-26T04:01:28.168896,13.21825050,.0002091,87.9252,242.2127,104.5587,255.5779,0,U,54670,999,17275,.47171E-3,.208E-5,0
ONEWEB-0607,2022-166AF,2026-06-26T03:13:01.838784,13.21824655,.0001934,87.9254,242.1909,95.3273,264.8082,0,U,54671,999,17272,.95476E-4,.52E-6,0
ONEWEB-0608,2022-166AG,2026-06-25T16:28:39.731808,13.21828743,.0002072,87.9258,242.2768,83.3204,276.8166,0,U,54672,999,17267,-.42115E-4,-.4E-7,0
ONEWEB-0610,2022-166AH,2026-06-26T04:42:39.257280,13.21824902,.0001826,87.9248,242.1889,80.2213,279.9127,0,U,54673,999,17264,.60056E-4,.38E-6,0
ONEWEB-0611,2022-166AJ,2026-06-26T04:32:56.236992,13.21825605,.000213,87.9248,242.1862,101.4468,258.6905,0,U,54674,999,17263,.84553E-4,.48E-6,0
ONEWEB-0612,2022-166AK,2026-06-26T03:03:20.776320,13.21825361,.0002004,87.9258,242.1947,93.1039,267.0325,0,U,54675,999,17261,-.30233E-5,.12E-6,0
ONEWEB-0615,2022-166AL,2026-06-26T04:23:16.300320,13.21827479,.0002027,87.9251,242.1979,105.8041,254.3316,0,U,54676,999,17263,.28001E-4,.25E-6,0
ONEWEB-0655,2022-166AM,2026-06-26T03:49:21.374688,13.21826998,.0001806,87.9250,242.2037,98.3426,261.7912,0,U,54677,999,17262,.69517E-4,.42E-6,0
ONEWEB-0659,2022-166AN,2026-06-26T04:13:39.265824,13.21755951,.0002144,87.9248,242.1997,116.5284,243.6070,0,U,54678,999,17271,.463E-1,.19156E-3,0
ONEWEB-0685,2022-166AP,2026-06-26T04:13:29.895744,13.21847598,.0001905,87.9245,242.1917,88.2383,271.8969,0,U,54679,999,17260,.31259E-4,.26E-6,0
ONEWEB-0712,2022-166AQ,2026-06-26T04:18:42.162624,13.16594444,.0001583,87.9090,226.9891,98.6219,261.5091,0,U,54680,999,17324,-.59519E-4,-.1E-6,0
ONEWEB-0714,2022-166AR,2026-06-26T04:20:50.891712,13.21820809,.0001348,87.9248,242.1888,113.8538,246.2737,0,U,54681,999,17272,.19606E-2,.823E-5,0
ONEWEB-0532,2023-004A,2026-06-26T01:39:12.678336,13.17647715,.0002195,87.9132,4.0971,85.5939,274.5444,0,U,55140,999,16875,-.82099E-4,-.19E-6,0
ONEWEB-0533,2023-004B,2026-06-25T23:54:11.316384,13.12444954,.0001733,87.8946,348.9183,86.1859,273.9468,0,U,55141,999,16921,.11198E-2,.416E-5,0
ONEWEB-0541,2023-004C,2026-06-26T02:36:59.088672,13.11414320,.0001987,87.8891,19.2823,90.8281,269.3074,0,U,55142,999,16711,-.10925E-4,.9E-7,0
ONEWEB-0543,2023-004D,2026-06-26T04:38:10.683744,13.18685657,.0001625,87.9166,333.6771,98.1052,262.0265,0,U,55143,999,17088,.73259E-4,.42E-6,0
ONEWEB-0544,2023-004E,2026-06-26T04:28:27.845760,13.18686277,.0001822,87.9167,333.6781,101.4307,258.7030,0,U,55144,999,17088,.10296E-3,.54E-6,0
ONEWEB-0560,2023-004F,2026-06-26T04:18:44.371008,13.18686975,.0001777,87.9168,333.6689,103.4790,256.6540,0,U,55145,999,17089,-.84182E-4,-.2E-6,0
ONEWEB-0565,2023-004G,2026-06-26T04:09:02.804832,13.18685826,.0002192,87.9157,333.6974,101.7690,258.3689,0,U,55146,999,17088,.27009E-3,.119E-5,0
ONEWEB-0567,2023-004H,2026-06-26T03:59:20.065344,13.18686228,.0002048,87.9167,333.6837,103.5161,256.6199,0,U,55147,999,17088,.20552E-3,.94E-6,0
ONEWEB-0569,2023-004J,2026-06-26T03:35:11.476032,13.13470386,.0002047,87.8968,318.4356,124.4911,235.6412,0,U,55148,999,17135,.92615E-3,.351E-5,0
ONEWEB-0570,2023-004K,2026-06-26T03:47:11.035104,13.18686315,.0002255,87.9164,333.6830,91.4719,268.6672,0,U,55149,999,17087,.18628E-3,.86E-6,0
ONEWEB-0571,2023-004L,2026-06-26T03:37:28.278336,13.18684963,.0002699,87.9166,333.6839,119.2984,240.8418,0,U,55150,999,17088,-.24336E-6,.13E-6,0
ONEWEB-0572,2023-004M,2026-06-25T22:45:28.901088,13.17649176,.0002012,87.9130,4.1222,93.5148,266.6214,0,U,55151,999,16863,.32869E-3,.141E-5,0
ONEWEB-0573,2023-004N,2026-06-26T03:27:45.338400,13.18687187,.0002522,87.9168,333.6866,110.2568,249.8835,0,U,55152,999,17087,.67977E-4,.4E-6,0
ONEWEB-0588,2023-004P,2026-06-26T03:18:03.169152,13.18686392,.0002374,87.9165,333.6880,92.5877,267.5527,0,U,55153,999,17087,.41323E-4,.29E-6,0
ONEWEB-0598,2023-004Q,2026-06-26T02:05:15.707040,13.11419414,.0001902,87.8880,19.2965,108.9243,251.2091,0,U,55154,999,16706,.54437E-3,.206E-5,0
ONEWEB-0599,2023-004R,2026-06-25T23:38:56.620320,13.17649523,.0001676,87.9132,4.1134,94.2787,265.8536,0,U,55155,999,16864,.2963E-3,.128E-5,0
ONEWEB-0614,2023-004S,2026-06-26T01:57:55.949184,13.11418064,.0001973,87.8880,19.3064,81.5110,278.6241,0,U,55156,999,16700,.15004E-2,.545E-5,0
ONEWEB-0616,2023-004T,2026-06-25T22:50:20.888160,13.17649471,.0000968,87.9134,4.1239,102.5588,257.5652,0,U,55157,999,16885,.32334E-3,.138E-5,0
ONEWEB-0617,2023-004U,2026-06-26T01:40:50.508192,13.11422163,.0002087,87.8882,19.2992,78.4200,281.7162,0,U,55158,999,16702,-.9076E-3,-.309E-5,0
