ONEWEB-0606             
1 54670U 22166AE  26177.16768714  .00000208  00000+0  47171-3 0  9994
2 54670  87.9252 242.2127 0002091 104.5587 255.5779 13.21825050172758
ONEWEB-0607             
1 54671U 22166AF  26177.13404906  .00000052  00000+0  95476-4 0  9991
2 54671  87.9254 242.1909 0001934  95.3273 264.8082 13.21824655172729
ONEWEB-0608             
1 54672U 22166AG  26176.68657097 -.00000004  00000+0 -42115-4 0  9993
2 54672  87.9258 242.2768 0002072  83.3204 276.8166 13.21828743172675
ONEWEB-0610             
1 54673U 22166AH  26177.19628770  .00000038  00000+0  60056-4 0  9996
2 54673  87.9248 242.1889 0001826  80.2213 279.9127 13.21824902172641
ONEWEB-0611             
1 54674U 22166AJ  26177.18953978  .00000048  00000+0  84553-4 0  9996
2 54674  87.9248 242.1862 0002130 101.4468 258.6905 13.21825605172638
ONEWEB-0612             
1 54675U 22166AK  26177.12732380  .00000012  00000+0 -30233-5 0  9992
2 54675  87.9258 242.1947 0002004  93.1039 267.0325 13.21825361172612
ONEWEB-0615             
1 54676U 22166AL  26177.18282755  .00000025  00000+0  28001-4 0  9997
2 54676  87.9251 242.1979 0002027 105.8041 254.3316 13.21827479172633
ONEWEB-0655             
1 54677U 22166AM  26177.15927517  .00000042  00000+0  69517-4 0  9993
2 54677  87.9250 242.2037 0001806  98.3426 261.7912 13.21826998172624
ONEWEB-0659             
1 54678U 22166AN  26177.17614891  .00019156  00000+0  46300-1 0  9992
2 54678  87.9248 242.1997 0002144 116.5284 243.6070 13.21755951172711
ONEWEB-0685             
1 54679U 22166AP  26177.17604046  .00000026  00000+0  31259-4 0  9990
2 54679  87.9245 242.1917 0001905  88.2383 271.8969 13.21847598172607
ONEWEB-0712             
1 54680U 22166AQ  26177.17965466 -.00000010  00000+0 -59519-4 0  9992
2 54680  87.9090 226.9891 0001583  98.6219 261.5091 13.16594444173249
ONEWEB-0714             
1 54681U 22166AR  26177.18114458  .00000823  00000+0  19606-2 0  9992
2 54681  87.9248 242.1888 0001348 113.8538 246.2737 13.21820809172726
ONEWEB-0532             
1 55140U 23004A   26177.06889674 -.00000019  00000+0 -82099-4 0  9998
2 55140  87.9132   4.0971 0002195  85.5939 274.5444 13.17647715168753
ONEWEB-0533             
1 55141U 23004B   26176.99596431  .00000416  00000+0  11198-2 0  9995
2 55141  87.8946 348.9183 0001733  86.1859 273.9468 13.12444954169212
ONEWEB-0541             
1 55142U 23004C   26177.10901723  .00000009  00000+0 -10925-4 0  9992
2 55142  87.8891  19.2823 0001987  90.8281 269.3074 13.11414320167115
ONEWEB-0543             
1 55143U 23004D   26177.19317921  .00000042  00000+0  73259-4 0  9998
2 55143  87.9166 333.6771 0001625  98.1052 262.0265 13.18685657170883
ONEWEB-0544             
1 55144U 23004E   26177.18643340  .00000054  00000+0  10296-3 0  9999
2 55144  87.9167 333.6781 0001822 101.4307 258.7030 13.18686277170887
ONEWEB-0560             
1 55145U 23004F   26177.17968022 -.00000020  00000+0 -84182-4 0  9997
2 55145  87.9168 333.6689 0001777 103.4790 256.6540 13.18686975170892
ONEWEB-0565             
1 55146U 23004G   26177.17294913  .00000119  00000+0  27009-3 0  9990
2 55146  87.9157 333.6974 0002192 101.7690 258.3689 13.18685826170886
ONEWEB-0567             
1 55147U 23004H   26177.16620446  .00000094  00000+0  20552-3 0  9992
2 55147  87.9167 333.6837 0002048 103.5161 256.6199 13.18686228170883
ONEWEB-0569             
1 55148U 23004J   26177.14943838  .00000351  00000+0  92615-3 0  9999
2 55148  87.8968 318.4356 0002047 124.4911 235.6412 13.13470386171352
ONEWEB-0570             
1 55149U 23004K   26177.15776661  .00000086  00000+0  18628-3 0  9996
2 55149  87.9164 333.6830 0002255  91.4719 268.6672 13.18686315170874
ONEWEB-0571             
1 55150U 23004L   26177.15102174  .00000013  00000+0 -24336-6 0  9997
2 55150  87.9166 333.6839 0002699 119.2984 240.8418 13.18684963170880
ONEWEB-0572             
1 55151U 23004M   26176.94825117  .00000141  00000+0  32869-3 0  9991
2 55151  87.9130   4.1222 0002012  93.5148 266.6214 13.17649176168639
ONEWEB-0573             
1 55152U 23004N   26177.14427475  .00000040  00000+0  67977-4 0  9997
2 55152  87.9168 333.6866 0002522 110.2568 249.8835 13.18687187170870
ONEWEB-0588             
1 55153U 23004P   26177.13753668  .00000029  00000+0  41323-4 0  9997
2 55153  87.9165 333.6880 0002374  92.5877 267.5527 13.18686392170876
ONEWEB-0598             
1 55154U 23004Q   26177.08698735  .00000206  00000+0  54437-3 0  9991
2 55154  87.8880  19.2965 0001902 108.9243 251.2091 13.11419414167061
ONEWEB-0599             
1 55155U 23004R   26176.98537755  .00000128  00000+0  29630-3 0  9994
2 55155  87.9132   4.1134 0001676  94.2787 265.8536 13.17649523168644
ONEWEB-0614             
1 55156U 23004S   26177.08189756  .00000545  00000+0  15004-2 0  9993
2 55156  87.8880  19.3064 0001973  81.5110 278.6241 13.11418064167005
ONEWEB-0616             
1 55157U 23004T   26176.95163065  .00000138  00000+0  32334-3 0  9998
2 55157  87.9134   4.1239 0000968 102.5588 257.5652 13.17649471168851
ONEWEB-0617             
1 55158U 23004U   26177.07002903 -.00000309  00000+0 -90760-3 0  9995
2 55158  87.8882  19.2992 0002087  78.4200 281.7162 13.11422163167024
